[{"OBJECT_NAME":"ONEWEB-0108","OBJECT_ID":"2021-025AL","EPOCH":"2026-03-09T19:35:39.732576","MEAN_MOTION":13.13469941,"ECCENTRICITY":0.00015083,"INCLINATION":87.9045,"RA_OF_ASC_NODE":339.9739,"ARG_OF_PERICENTER":75.3113,"MEAN_ANOMALY":284.8183,"EPHEMERIS_TYPE":0,"CLASSIFICATION_TYPE":"U","NORAD_CAT_ID":48076,"ELEMENT_SET_NO":999,"REV_AT_EPOCH":24060,"BSTAR":0.00093760627,"MEAN_MOTION_DOT":3.55e-6,"MEAN_MOTION_DDOT":0},{"OBJECT_NAME":"THORAD AGENA D DEB","OBJECT_ID":"1970-025RC","EPOCH":"2026-03-08T07:44:14.551296","MEAN_MOTION":13.3362803,"ECCENTRICITY":0.01713977,"INCLINATION":100.5234,"RA_OF_ASC_NODE":108.2794,"ARG_OF_PERICENTER":167.6015,"MEAN_ANOMALY":192.9404,"EPHEMERIS_TYPE":0,"CLASSIFICATION_TYPE":"U","NORAD_CAT_ID":42498,"ELEMENT_SET_NO":999,"REV_AT_EPOCH":57744,"BSTAR":0.0024572512,"MEAN_MOTION_DOT":1.271e-5,"MEAN_MOTION_DDOT":0}]
